NORAD_CAT_ID,OBJECT_NAME,OBJECT_TYPE,EPOCH,MEAN_MOTION,ECCENTRICITY,INCLINATION,RA_OF_ASC_NODE,ARG_OF_PERICENTER,MEAN_ANOMALY,BSTAR,MEAN_MOTION_DOT,MEAN_MOTION_DDOT,TLE_LINE0,TLE_LINE1,TLE_LINE2,SEMIMAJOR_AXIS,PERIOD,APOGEE,PERIGEE,DECAYED
55961.0,STARLINK-5933,PAYLOAD,2023-11-04 22:46:20,14.98325136,0.000285,70.0013,261.9884,270.6416,89.4416,3.6868e-05,3.47e-06,0.0,0 STARLINK-5933,1 55961U 23037AZ  23308.94884433  .00000347  00000-0  36868-4 0  9999,2 55961  70.0013 261.9884 0002850 270.6416  89.4416 14.98325136 36292,6950.208,96.107,574.054,570.092,0.0
55961.0,STARLINK-5933,PAYLOAD,2023-11-05 06:46:59,14.98338294,0.0002844,70.0,261.1473,268.823,91.2603,0.00011614,1.293e-05,0.0,0 STARLINK-5933,1 55961U 23037AZ  23309.28263381  .00001293  00000-0  11614-3 0  9992,2 55961  70.0000 261.1473 0002844 268.8230  91.2603 14.98338294 36681,6950.167,96.106,574.009,570.056,0.0
55961.0,STARLINK-5933,PAYLOAD,2023-11-05 14:47:40,14.98333214,0.0002497,70.0017,260.3049,278.5176,81.57,1.5566e-05,9.3e-07,0.0,0 STARLINK-5933,1 55961U 23037AZ  23309.61643991  .00000093  00000-0  15566-4 0  9996,2 55961  70.0017 260.3049 0002497 278.5176  81.5700 14.98333214 36733,6950.183,96.107,573.783,570.312,0.0
55961.0,STARLINK-5933,PAYLOAD,2023-11-05 22:48:20,14.98336568,0.0002746,70.0014,259.4631,269.8828,90.2017,4.0827e-05,3.94e-06,0.0,0 STARLINK-5933,1 55961U 23037AZ  23309.95023469  .00000394  00000-0  40827-4 0  9997,2 55961  70.0014 259.4631 0002746 269.8828  90.2017 14.98336568 36441,6950.173,96.107,573.946,570.129,0.0
55961.0,STARLINK-5933,PAYLOAD,2023-11-06 03:36:43,14.98350868,0.0002789,69.9993,258.9597,270.415,89.6689,0.00015882,1.804e-05,0.0,0 STARLINK-5933,1 55961U 23037AZ  23310.15050089  .00001804  00000-0  15882-3 0  9998,2 55961  69.9993 258.9597 0002789 270.4150  89.6689 14.98350868 36819,6950.128,96.106,573.932,570.055,0.0
55961.0,STARLINK-5933,PAYLOAD,2023-11-06 06:48:59,14.98346644,0.0002637,70.0008,258.6249,267.5011,92.5846,0.00028637,3.327e-05,0.0,0 STARLINK-5933,1 55961U 23037AZ  23310.28401863  .00003327  00000-0  28637-3 0  9996,2 55961  70.0008 258.6249 0002637 267.5011  92.5846 14.98346644 36494,6950.141,96.106,573.839,570.174,0.0
55961.0,STARLINK-5933,PAYLOAD,2023-11-06 21:14:15,14.98306954,0.0003084,70.0005,257.1071,263.8031,96.2777,-0.00024268,-2.986e-05,0.0,0 STARLINK-5933,1 55961U 23037AZ  23310.88489933 -.00002986  00000-0 -24268-3 0  9994,2 55961  70.0005 257.1071 0003084 263.8031  96.2777 14.98306954 36580,6950.264,96.108,574.273,569.986,0.0
55961.0,STARLINK-5933,PAYLOAD,2023-11-07 03:38:47,14.98307011,0.0003073,69.9993,256.4343,266.918,93.1628,-0.00028853,-3.532e-05,0.0,0 STARLINK-5933,1 55961U 23037AZ  23311.15194442 -.00003532  00000-0 -28853-3 0  9995,2 55961  69.9993 256.4343 0003073 266.9180  93.1628 14.98307011 36962,6950.264,96.108,574.265,569.993,0.0
55961.0,STARLINK-5933,PAYLOAD,2023-11-07 13:15:35,14.98321976,0.000279,70.0007,255.4246,264.2288,95.8553,-0.00021384,-2.643e-05,0.0,0 STARLINK-5933,1 55961U 23037AZ  23311.55249718 -.00002643  00000-0 -21384-3 0  9990,2 55961  70.0007 255.4246 0002790 264.2288  95.8553 14.98321976 36688,6950.218,96.108,574.022,570.144,0.0
55961.0,STARLINK-5933,PAYLOAD,2023-11-08 03:40:47,14.9833518,0.0002621,70.0009,253.9131,252.0198,108.0676,-0.00011464,-1.461e-05,0.0,0 STARLINK-5933,1 55961U 23037AZ  23312.15332826 -.00001461  00000-0 -11464-3 0  9995,2 55961  70.0009 253.9131 0002621 252.0198 108.0676 14.98335180 37118,6950.177,96.107,573.864,570.22,0.0
55961.0,STARLINK-5933,PAYLOAD,2023-11-08 06:53:03,14.9834183,0.0002951,69.9995,253.5744,258.8155,101.2673,-3.9985e-05,-5.7e-06,0.0,0 STARLINK-5933,1 55961U 23037AZ  23312.28684231 -.00000570  00000-0 -39985-4 0  9998,2 55961  69.9995 253.5744 0002951 258.8155 101.2673 14.98341830 36792,6950.156,96.106,574.072,569.97,0.0
55961.0,STARLINK-5933,PAYLOAD,2023-11-08 22:54:23,14.98322557,0.0002803,70.0005,251.8903,253.8065,106.2786,0.00038469,4.499e-05,0.0,0 STARLINK-5933,1 55961U 23037AZ  23312.95444287  .00004499  00000-0  38469-3 0  9994,2 55961  70.0005 251.8903 0002803 253.8065 106.2786 14.98322557 36892,6950.216,96.107,574.029,570.133,0.0
55961.0,STARLINK-5933,PAYLOAD,2023-11-09 06:55:03,14.98337217,0.0002723,70.0005,251.0493,250.7446,109.3418,0.00046817,5.499e-05,0.0,0 STARLINK-5933,1 55961U 23037AZ  23313.28823133  .00005499  00000-0  46817-3 0  9999,2 55961  70.0005 251.0493 0002723 250.7446 109.3418 14.98337217 37287,6950.171,96.107,573.928,570.143,0.0
55961.0,STARLINK-5933,PAYLOAD,2023-11-09 22:56:25,14.98328904,0.0002653,70.0007,249.3669,254.9504,105.1361,-2.4744e-05,-3.88e-06,0.0,0 STARLINK-5933,1 55961U 23037AZ  23313.95585040 -.00000388  00000-0 -24744-4 0  9995,2 55961  70.0007 249.3669 0002653 254.9504 105.1361 14.98328904 37045,6950.196,96.107,573.905,570.217,0.0
55961.0,STARLINK-5933,PAYLOAD,2023-11-10 03:44:49,14.98330416,0.0002805,70.0,248.8608,261.0081,99.076,-6.6943e-05,-8.92e-06,0.0,0 STARLINK-5933,1 55961U 23037AZ  23314.15613039 -.00000892  00000-0 -66943-4 0  9995,2 55961  70.0000 248.8608 0002805 261.0081  99.0760 14.98330416 37419,6950.192,96.107,574.006,570.107,0.0
55961.0,STARLINK-5933,PAYLOAD,2023-11-10 13:21:37,14.98334405,0.000276,70.0002,247.8511,262.3249,97.7596,-9.2508e-05,-1.197e-05,0.0,0 STARLINK-5933,1 55961U 23037AZ  23314.55668752 -.00001197  00000-0 -92508-4 0  9996,2 55961  70.0002 247.8511 0002760 262.3249  97.7596 14.98334405 37136,6950.179,96.107,573.963,570.126,0.0
55961.0,STARLINK-5933,PAYLOAD,2023-11-10 21:22:17,14.98339952,0.0002788,69.9999,247.0093,263.0808,97.0033,-0.00014043,-1.769e-05,0.0,0 STARLINK-5933,1 55961U 23037AZ  23314.89048385 -.00001769  00000-0 -14043-3 0  9999,2 55961  69.9999 247.0093 0002788 263.0808  97.0033 14.98339952 37180,6950.162,96.106,573.965,570.089,0.0
55961.0,STARLINK-5933,PAYLOAD,2023-11-11 03:46:49,14.98340958,0.0002928,70.0,246.3354,267.7292,92.3532,-5.2607e-05,-7.21e-06,0.0,0 STARLINK-5933,1 55961U 23037AZ  23315.15751898 -.00000721  00000-0 -52607-4 0  9995,2 55961  70.0000 246.3354 0002928 267.7292  92.3532 14.98340958 37564,6950.159,96.106,574.059,569.989,0.0
55961.0,STARLINK-5933,PAYLOAD,2023-11-11 13:23:38,14.9834046,0.0002649,70.0005,245.3252,264.0687,96.017,-0.00017301,-2.157e-05,0.0,0 STARLINK-5933,1 55961U 23037AZ  23315.55807888 -.00002157  00000-0 -17301-3 0  9996,2 55961  70.0005 245.3252 0002649 264.0687  96.0170 14.98340460 37289,6950.161,96.106,573.867,570.184,0.0
55961.0,STARLINK-5933,PAYLOAD,2023-11-11 19:48:10,14.98323112,0.0002669,70.0002,244.652,264.6419,95.4436,8.4047e-05,9.1e-06,0.0,0 STARLINK-5933,1 55961U 23037AZ  23315.82512308  .00000910  00000-0  84047-4 0  9991,2 55961  70.0002 244.6520 0002669 264.6419  95.4436 14.98323112 37662,6950.214,96.107,573.934,570.224,0.0
55961.0,STARLINK-5933,PAYLOAD,2023-11-11 21:24:18,14.98326368,0.0002678,70.0001,244.4838,265.5831,94.5022,7.1464e-06,-8e-08,0.0,0 STARLINK-5933,1 55961U 23037AZ  23315.89188387 -.00000008  00000-0  71464-5 0  9993,2 55961  70.0001 244.4838 0002678 265.5831  94.5022 14.98326368 37330,6950.204,96.107,573.93,570.208,0.0
55961.0,STARLINK-5933,PAYLOAD,2023-11-12 05:24:59,14.98327231,0.0002544,70.0005,243.643,268.1634,91.9234,2.336e-05,1.86e-06,0.0,0 STARLINK-5933,1 55961U 23037AZ  23316.22568381  .00000186  00000-0  23360-4 0  9994,2 55961  70.0005 243.6430 0002544 268.1634  91.9234 14.98327231 37386,6950.201,96.107,573.835,570.298,0.0
55961.0,STARLINK-5933,PAYLOAD,2023-11-12 19:50:11,14.98331502,0.0002688,70.0003,242.1283,268.5941,91.491,9.7395e-06,2.3e-07,0.0,0 STARLINK-5933,1 55961U 23037AZ  23316.82652094  .00000023  00000-0  97395-5 0  9995,2 55961  70.0003 242.1283 0002688 268.5941  91.4910 14.98331502 37818,6950.188,96.107,573.921,570.185,0.0
55961.0,STARLINK-5933,PAYLOAD,2023-11-12 21:26:19,14.9833176,0.0002676,70.0002,241.96,268.6202,91.4651,2.8127e-06,-5.9e-07,0.0,0 STARLINK-5933,1 55961U 23037AZ  23316.89328090 -.00000059  00000-0  28127-5 0  9995,2 55961  70.0002 241.9600 0002676 268.6202  91.4651 14.98331760 37486,6950.187,96.107,573.912,570.193,0.0
55961.0,STARLINK-5933,PAYLOAD,2023-11-13 11:51:31,14.98335539,0.0002426,70.0008,240.4453,270.4668,89.6213,-3.9918e-05,-5.69e-06,0.0,0 STARLINK-5933,1 55961U 23037AZ  23317.49411809 -.00000569  00000-0 -39918-4 0  9999,2 55961  70.0008 240.4453 0002426 270.4668  89.6213 14.98335539 37573,6950.176,96.107,573.727,570.355,0.0
55961.0,STARLINK-5933,PAYLOAD,2023-11-14 03:52:52,14.98359672,0.0001985,70.0015,238.7624,273.0423,87.0509,-0.00049874,-6.043e-05,0.0,0 STARLINK-5933,1 55961U 23037AZ  23318.16171433 -.00006043  00000-0 -49874-3 0  9994,2 55961  70.0015 238.7624 0001985 273.0423  87.0509 14.98359672 38012,6950.101,96.105,573.346,570.587,0.0
55961.0,STARLINK-5933,PAYLOAD,2023-11-14 11:53:32,14.98361984,0.0002183,70.0021,237.9202,276.942,83.1491,-0.00059071,-7.139e-05,0.0,0 STARLINK-5933,1 55961U 23037AZ  23318.49551275 -.00007139  00000-0 -59071-3 0  9993,2 55961  70.0021 237.9202 0002183 276.9420  83.1491 14.98361984 37725,6950.094,96.105,573.476,570.442,0.0
55961.0,STARLINK-5933,PAYLOAD,2023-11-14 18:18:05,14.9831855,0.0002326,70.0016,237.2468,265.953,94.1363,0.00020452,2.347e-05,0.0,0 STARLINK-5933,1 55961U 23037AZ  23318.76255927  .00002347  00000-0  20452-3 0  9993,2 55961  70.0016 237.2468 0002326 265.9530  94.1363 14.98318550 38109,6950.228,96.108,573.71,570.477,0.0
55961.0,STARLINK-5933,PAYLOAD,2023-11-15 05:31:01,14.9831966,0.0002422,70.0015,236.0686,266.6293,93.4589,0.00011835,1.319e-05,0.0,0 STARLINK-5933,1 55961U 23037AZ  23319.22988354  .00001319  00000-0  11835-3 0  9995,2 55961  70.0015 236.0686 0002422 266.6293  93.4589 14.98319660 37832,6950.225,96.108,573.773,570.407,0.0
55961.0,STARLINK-5933,PAYLOAD,2023-11-16 02:20:46,14.98328245,0.0002443,70.0013,233.8808,266.4612,93.6268,-1.315e-05,-2.5e-06,0.0,0 STARLINK-5933,1 55961U 23037AZ  23320.09776077 -.00000250  00000-0 -13150-4 0  9997,2 55961  70.0013 233.8808 0002443 266.4612  93.6268 14.98328245 38305,6950.198,96.107,573.761,570.365,0.0
